[{"OBJECT_NAME":"STARLINK-1115","OBJECT_ID":"2020-001BM","EPOCH":"2023-09-08T06:00:02.000160","MEAN_MOTION":15.06407678,"ECCENTRICITY":0.0001128,"INCLINATION":53.0531,"RA_OF_ASC_NODE":87.2089,"ARG_OF_PERICENTER":70.8573,"MEAN_ANOMALY":119.6078,"EPHEMERIS_TYPE":0,"CLASSIFICATION_TYPE":"U","NORAD_CAT_ID":44973,"ELEMENT_SET_NO":999,"REV_AT_EPOCH":20272,"BSTAR":-0.0010556,"MEAN_MOTION_DOT":-0.00015973,"MEAN_MOTION_DDOT":0},{"OBJECT_NAME":"TJS-5","OBJECT_ID":"2020-002A","EPOCH":"2023-09-07T20:46:42.726720","MEAN_MOTION":1.00270432,"ECCENTRICITY":0.000217,"INCLINATION":0.1584,"RA_OF_ASC_NODE":291.6432,"ARG_OF_PERICENTER":233.5079,"MEAN_ANOMALY":240.6974,"EPHEMERIS_TYPE":0,"CLASSIFICATION_TYPE":"U","NORAD_CAT_ID":44978,"ELEMENT_SET_NO":999,"REV_AT_EPOCH":1354,"BSTAR":0,"MEAN_MOTION_DOT":-3.54e-6,"MEAN_MOTION_DDOT":0},{"OBJECT_NAME":"JILIN-01 KUANFU 01","OBJECT_ID":"2020-003A","EPOCH":"2023-09-08T03:03:56.221056","MEAN_MOTION":15.131158,"ECCENTRICITY":0.0002393,"INCLINATION":97.6165,"RA_OF_ASC_NODE":320.0294,"ARG_OF_PERICENTER":121.075,"MEAN_ANOMALY":239.0716,"EPHEMERIS_TYPE":0,"CLASSIFICATION_TYPE":"U","NORAD_CAT_ID":45016,"ELEMENT_SET_NO":999,"REV_AT_EPOCH":20226,"BSTAR":0.00030292,"MEAN_MOTION_DOT":5.299e-5,"MEAN_MOTION_DDOT":0},{"OBJECT_NAME":"NUSAT-7 (SOPHIE)","OBJECT_ID":"2020-003B","EPOCH":"2023-09-08T03:44:49.142976","MEAN_MOTION":15.63642333,"ECCENTRICITY":0.0007825,"INCLINATION":97.1487,"RA_OF_ASC_NODE":313.0183,"ARG_OF_PERICENTER":161.1262,"MEAN_ANOMALY":199.0289,"EPHEMERIS_TYPE":0,"CLASSIFICATION_TYPE":"U","NORAD_CAT_ID":45017,"ELEMENT_SET_NO":999,"REV_AT_EPOCH":20434,"BSTAR":0.0010221,"MEAN_MOTION_DOT":0.00095959,"MEAN_MOTION_DDOT":0},{"OBJECT_NAME":"NUSAT-8 (MARIE)","OBJECT_ID":"2020-003C","EPOCH":"2023-09-07T22:45:14.319360","MEAN_MOTION":15.89672167,"ECCENTRICITY":0.0005869,"INCLINATION":97.156,"RA_OF_ASC_NODE":319.9981,"ARG_OF_PERICENTER":195.354,"MEAN_ANOMALY":164.7556,"EPHEMERIS_TYPE":0,"CLASSIFICATION_TYPE":"U","NORAD_CAT_ID":45018,"ELEMENT_SET_NO":999,"REV_AT_EPOCH":20466,"BSTAR":0.0011905,"MEAN_MOTION_DOT":0.00347913,"MEAN_MOTION_DDOT":4.6452e-5},{"OBJECT_NAME":"TIANQI-5","OBJECT_ID":"2020-003D","EPOCH":"2023-09-08T02:33:21.824640","MEAN_MOTION":15.45264026,"ECCENTRICITY":0.0008981,"INCLINATION":97.1585,"RA_OF_ASC_NODE":306.729,"ARG_OF_PERICENTER":188.6003,"MEAN_ANOMALY":171.5094,"EPHEMERIS_TYPE":0,"CLASSIFICATION_TYPE":"U","NORAD_CAT_ID":45019,"ELEMENT_SET_NO":999,"REV_AT_EPOCH":20385,"BSTAR":0.00059824,"MEAN_MOTION_DOT":0.00028478,"MEAN_MOTION_DDOT":0},{"OBJECT_NAME":"YINHE-1","OBJECT_ID":"2020-004A","EPOCH":"2023-09-08T03:09:53.618976","MEAN_MOTION":14.76291974,"ECCENTRICITY":0.0012012,"INCLINATION":86.3986,"RA_OF_ASC_NODE":209.7698,"ARG_OF_PERICENTER":311.7456,"MEAN_ANOMALY":48.2735,"EPHEMERIS_TYPE":0,"CLASSIFICATION_TYPE":"U","NORAD_CAT_ID":45024,"ELEMENT_SET_NO":999,"REV_AT_EPOCH":19632,"BSTAR":0.00015737,"MEAN_MOTION_DOT":1.117e-5,"MEAN_MOTION_DDOT":0},{"OBJECT_NAME":"GSAT-30","OBJECT_ID":"2020-005A","EPOCH":"2023-09-07T21:36:42.519168","MEAN_MOTION":1.00270182,"ECCENTRICITY":0.0001852,"INCLINATION":0.0219,"RA_OF_ASC_NODE":241.8537,"ARG_OF_PERICENTER":245.7548,"MEAN_ANOMALY":266.2516,"EPHEMERIS_TYPE":0,"CLASSIFICATION_TYPE":"U","NORAD_CAT_ID":45026,"ELEMENT_SET_NO":999,"REV_AT_EPOCH":1334,"BSTAR":0,"MEAN_MOTION_DOT":-1.76e-6,"MEAN_MOTION_DDOT":0},{"OBJECT_NAME":"EUTELSAT KONNECT","OBJECT_ID":"2020-005B","EPOCH":"2023-09-08T01:18:42.666336","MEAN_MOTION":1.00269531,"ECCENTRICITY":4.23e-5,"INCLINATION":0.0472,"RA_OF_ASC_NODE":94.7023,"ARG_OF_PERICENTER":214.595,"MEAN_ANOMALY":64.4081,"EPHEMERIS_TYPE":0,"CLASSIFICATION_TYPE":"U","NORAD_CAT_ID":45027,"ELEMENT_SET_NO":999,"REV_AT_EPOCH":1416,"BSTAR":0,"MEAN_MOTION_DOT":3.7e-7,"MEAN_MOTION_DDOT":0},{"OBJECT_NAME":"STARLINK-1132","OBJECT_ID":"2020-006A","EPOCH":"2023-09-07T20:34:39.404064","MEAN_MOTION":15.06402849,"ECCENTRICITY":0.0001188,"INCLINATION":53.0547,"RA_OF_ASC_NODE":48.9706,"ARG_OF_PERICENTER":89.6999,"MEAN_ANOMALY":270.4127,"EPHEMERIS_TYPE":0,"CLASSIFICATION_TYPE":"U","NORAD_CAT_ID":45044,"ELEMENT_SET_NO":999,"REV_AT_EPOCH":19900,"BSTAR":0.00033541,"MEAN_MOTION_DOT":4.718e-5,"MEAN_MOTION_DDOT":0},{"OBJECT_NAME":"STARLINK-1120","OBJECT_ID":"2020-006B","EPOCH":"2023-09-07T21:50:15.035136","MEAN_MOTION":15.06405649,"ECCENTRICITY":0.000139,"INCLINATION":53.0561,"RA_OF_ASC_NODE":68.7282,"ARG_OF_PERICENTER":99.0406,"MEAN_ANOMALY":261.074,"EPHEMERIS_TYPE":0,"CLASSIFICATION_TYPE":"U","NORAD_CAT_ID":45045,"ELEMENT_SET_NO":999,"REV_AT_EPOCH":19907,"BSTAR":0.0001827,"MEAN_MOTION_DOT":2.441e-5,"MEAN_MOTION_DDOT":0},{"OBJECT_NAME":"STARLINK-1131","OBJECT_ID":"2020-006D","EPOCH":"2023-09-07T21:56:55.690944","MEAN_MOTION":15.06402686,"ECCENTRICITY":0.000138,"INCLINATION":53.0541,"RA_OF_ASC_NODE":68.7144,"ARG_OF_PERICENTER":97.7598,"MEAN_ANOMALY":262.3547,"EPHEMERIS_TYPE":0,"CLASSIFICATION_TYPE":"U","NORAD_CAT_ID":45047,"ELEMENT_SET_NO":999,"REV_AT_EPOCH":19873,"BSTAR":0.00024206,"MEAN_MOTION_DOT":3.326e-5,"MEAN_MOTION_DDOT":0},{"OBJECT_NAME":"STARLINK-1134","OBJECT_ID":"2020-006E","EPOCH":"2023-09-07T20:32:00.009888","MEAN_MOTION":15.06396121,"ECCENTRICITY":0.0001365,"INCLINATION":53.0533,"RA_OF_ASC_NODE":68.9816,"ARG_OF_PERICENTER":79.8755,"MEAN_ANOMALY":280.2387,"EPHEMERIS_TYPE":0,"CLASSIFICATION_TYPE":"U","NORAD_CAT_ID":45048,"ELEMENT_SET_NO":999,"REV_AT_EPOCH":19872,"BSTAR":-6.0676e-5,"MEAN_MOTION_DOT":-1.185e-5,"MEAN_MOTION_DDOT":0},{"OBJECT_NAME":"STARLINK-1135","OBJECT_ID":"2020-006F","EPOCH":"2023-09-07T19:37:01.844544","MEAN_MOTION":15.24423177,"ECCENTRICITY":0.0005796,"INCLINATION":53.0887,"RA_OF_ASC_NODE":34.297,"ARG_OF_PERICENTER":186.3947,"MEAN_ANOMALY":173.6977,"EPHEMERIS_TYPE":0,"CLASSIFICATION_TYPE":"U","NORAD_CAT_ID":45049,"ELEMENT_SET_NO":999,"REV_AT_EPOCH":19922,"BSTAR":0.00053384,"MEAN_MOTION_DOT":0.00012954,"MEAN_MOTION_DDOT":0},{"OBJECT_NAME":"STARLINK-1140","OBJECT_ID":"2020-006G","EPOCH":"2023-09-07T12:50:13.426368","MEAN_MOTION":15.06399115,"ECCENTRICITY":0.0001522,"INCLINATION":53.0548,"RA_OF_ASC_NODE":70.4164,"ARG_OF_PERICENTER":90.2932,"MEAN_ANOMALY":269.8231,"EPHEMERIS_TYPE":0,"CLASSIFICATION_TYPE":"U","NORAD_CAT_ID":45050,"ELEMENT_SET_NO":999,"REV_AT_EPOCH":19867,"BSTAR":7.4186e-5,"MEAN_MOTION_DOT":8.24e-6,"MEAN_MOTION_DDOT":0},{"OBJECT_NAME":"STARLINK-1148","OBJECT_ID":"2020-006J","EPOCH":"2023-09-07T20:58:32.396448","MEAN_MOTION":15.06396412,"ECCENTRICITY":0.0001429,"INCLINATION":53.0539,"RA_OF_ASC_NODE":68.8949,"ARG_OF_PERICENTER":93.5597,"MEAN_ANOMALY":266.5555,"EPHEMERIS_TYPE":0,"CLASSIFICATION_TYPE":"U","NORAD_CAT_ID":45052,"ELEMENT_SET_NO":999,"REV_AT_EPOCH":19906,"BSTAR":0.00012484,"MEAN_MOTION_DOT":1.578e-5,"MEAN_MOTION_DDOT":0},{"OBJECT_NAME":"STARLINK-1155","OBJECT_ID":"2020-006K","EPOCH":"2023-09-08T01:08:50.860896","MEAN_MOTION":15.36133402,"ECCENTRICITY":0.0004571,"INCLINATION":52.9899,"RA_OF_ASC_NODE":0.9744,"ARG_OF_PERICENTER":203.1479,"MEAN_ANOMALY":156.9317,"EPHEMERIS_TYPE":0,"CLASSIFICATION_TYPE":"U","NORAD_CAT_ID":45053,"ELEMENT_SET_NO":999,"REV_AT_EPOCH":19997,"BSTAR":0.0010059,"MEAN_MOTION_DOT":0.00035721,"MEAN_MOTION_DDOT":0},{"OBJECT_NAME":"STARLINK-1156","OBJECT_ID":"2020-006L","EPOCH":"2023-09-08T00:04:18.871680","MEAN_MOTION":15.06391235,"ECCENTRICITY":0.0001551,"INCLINATION":53.0544,"RA_OF_ASC_NODE":68.3139,"ARG_OF_PERICENTER":95.311,"MEAN_ANOMALY":264.8056,"EPHEMERIS_TYPE":0,"CLASSIFICATION_TYPE":"U","NORAD_CAT_ID":45054,"ELEMENT_SET_NO":999,"REV_AT_EPOCH":19908,"BSTAR":0.00026607,"MEAN_MOTION_DOT":3.683e-5,"MEAN_MOTION_DDOT":0},{"OBJECT_NAME":"STARLINK-1159","OBJECT_ID":"2020-006P","EPOCH":"2023-09-07T21:14:27.918240","MEAN_MOTION":15.06403423,"ECCENTRICITY":0.0001349,"INCLINATION":53.0546,"RA_OF_ASC_NODE":68.8482,"ARG_OF_PERICENTER":79.3724,"MEAN_ANOMALY":280.7417,"EPHEMERIS_TYPE":0,"CLASSIFICATION_TYPE":"U","NORAD_CAT_ID":45057,"ELEMENT_SET_NO":999,"REV_AT_EPOCH":19907,"BSTAR":0.0001267,"MEAN_MOTION_DOT":1.606e-5,"MEAN_MOTION_DDOT":0},{"OBJECT_NAME":"STARLINK-1162","OBJECT_ID":"2020-006Q","EPOCH":"2023-09-07T13:06:08.745984","MEAN_MOTION":15.06403716,"ECCENTRICITY":0.0001328,"INCLINATION":53.0548,"RA_OF_ASC_NODE":70.3692,"ARG_OF_PERICENTER":83.8031,"MEAN_ANOMALY":276.3109,"EPHEMERIS_TYPE":0,"CLASSIFICATION_TYPE":"U","NORAD_CAT_ID":45058,"ELEMENT_SET_NO":999,"REV_AT_EPOCH":19868,"BSTAR":0.00010454,"MEAN_MOTION_DOT":1.276e-5,"MEAN_MOTION_DDOT":0},{"OBJECT_NAME":"STARLINK-1165","OBJECT_ID":"2020-006R","EPOCH":"2023-09-07T21:35:41.788608","MEAN_MOTION":15.06400989,"ECCENTRICITY":0.0001096,"INCLINATION":53.0537,"RA_OF_ASC_NODE":68.7819,"ARG_OF_PERICENTER":76.6642,"MEAN_ANOMALY":283.4469,"EPHEMERIS_TYPE":0,"CLASSIFICATION_TYPE":"U","NORAD_CAT_ID":45059,"ELEMENT_SET_NO":999,"REV_AT_EPOCH":19873,"BSTAR":0.00028385,"MEAN_MOTION_DOT":3.949e-5,"MEAN_MOTION_DDOT":0},{"OBJECT_NAME":"STARLINK-1166","OBJECT_ID":"2020-006S","EPOCH":"2023-09-07T21:30:23.340672","MEAN_MOTION":15.06396621,"ECCENTRICITY":0.0001475,"INCLINATION":53.0543,"RA_OF_ASC_NODE":68.8003,"ARG_OF_PERICENTER":77.8445,"MEAN_ANOMALY":282.2709,"EPHEMERIS_TYPE":0,"CLASSIFICATION_TYPE":"U","NORAD_CAT_ID":45060,"ELEMENT_SET_NO":999,"REV_AT_EPOCH":19907,"BSTAR":0.00018366,"MEAN_MOTION_DOT":2.455e-5,"MEAN_MOTION_DDOT":0},{"OBJECT_NAME":"STARLINK-1169","OBJECT_ID":"2020-006T","EPOCH":"2023-09-07T12:07:45.761664","MEAN_MOTION":15.06397944,"ECCENTRICITY":0.0001308,"INCLINATION":53.0523,"RA_OF_ASC_NODE":70.5524,"ARG_OF_PERICENTER":92.9169,"MEAN_ANOMALY":267.197,"EPHEMERIS_TYPE":0,"CLASSIFICATION_TYPE":"U","NORAD_CAT_ID":45061,"ELEMENT_SET_NO":999,"REV_AT_EPOCH":19867,"BSTAR":3.1917e-5,"MEAN_MOTION_DOT":1.94e-6,"MEAN_MOTION_DDOT":0},{"OBJECT_NAME":"STARLINK-1171","OBJECT_ID":"2020-006U","EPOCH":"2023-09-07T21:19:46.466400","MEAN_MOTION":15.06400911,"ECCENTRICITY":0.0001224,"INCLINATION":53.0548,"RA_OF_ASC_NODE":68.83,"ARG_OF_PERICENTER":84.4233,"MEAN_ANOMALY":275.6896,"EPHEMERIS_TYPE":0,"CLASSIFICATION_TYPE":"U","NORAD_CAT_ID":45062,"ELEMENT_SET_NO":999,"REV_AT_EPOCH":19873,"BSTAR":0.00012874,"MEAN_MOTION_DOT":1.637e-5,"MEAN_MOTION_DDOT":0}]
